NORAD_CAT_ID,OBJECT_NAME,OBJECT_TYPE,EPOCH,MEAN_MOTION,ECCENTRICITY,INCLINATION,RA_OF_ASC_NODE,ARG_OF_PERICENTER,MEAN_ANOMALY,BSTAR,MEAN_MOTION_DOT,MEAN_MOTION_DDOT,TLE_LINE0,TLE_LINE1,TLE_LINE2,SEMIMAJOR_AXIS,PERIOD,APOGEE,PERIGEE,DECAYED
54159.0,STARLINK-5294,PAYLOAD,2024-03-01 08:42:29,15.08838079,0.0001385,53.2157,88.7005,88.7145,271.4006,6.1824e-05,6.96e-06,0.0,0 STARLINK-5294,1 54159U 22141C   24061.36283873  .00000696  00000-0  61824-4 0  9993,2 54159  53.2157  88.7005 0001385  88.7145 271.4006 15.08838079 74254,6917.886,95.438,540.709,538.793,0.0
54159.0,STARLINK-5294,PAYLOAD,2024-03-01 18:14:48,15.08838556,0.0001336,53.2158,86.9167,89.7577,270.3568,5.6874e-05,6.17e-06,0.0,0 STARLINK-5294,1 54159U 22141C   24061.76027882  .00000617  00000-0  56874-4 0  9995,2 54159  53.2158  86.9167 0001336  89.7577 270.3568 15.08838556 74318,6917.885,95.438,540.674,538.826,0.0
54159.0,STARLINK-5294,PAYLOAD,2024-03-02 06:57:53,15.08837305,0.0001436,53.2168,84.5401,95.3101,264.8055,1.6749e-05,-2.1e-07,0.0,0 STARLINK-5294,1 54159U 22141C   24062.29020315 -.00000021  00000-0  16749-4 0  9995,2 54159  53.2168  84.5401 0001436  95.3101 264.8055 15.08837305 74399,6917.889,95.438,540.747,538.76,0.0
54159.0,STARLINK-5294,PAYLOAD,2024-03-02 18:05:35,15.08840069,0.0001459,53.2171,82.4584,95.1693,264.9466,5.3373e-06,-2.03e-06,0.0,0 STARLINK-5294,1 54159U 22141C   24062.75388245 -.00000203  00000-0  53373-5 0  9992,2 54159  53.2171  82.4584 0001459  95.1693 264.9466 15.08840069 74467,6917.88,95.438,540.754,538.736,0.0
54159.0,STARLINK-5294,PAYLOAD,2024-03-03 08:24:03,15.0884113,0.0001487,53.2171,79.7827,100.0004,260.1156,6.9113e-05,8.12e-06,0.0,0 STARLINK-5294,1 54159U 22141C   24063.35004188  .00000812  00000-0  69113-4 0  9993,2 54159  53.2171  79.7827 0001487 100.0004 260.1156 15.08841130 74553,6917.877,95.437,540.771,538.713,0.0
54159.0,STARLINK-5294,PAYLOAD,2024-03-04 08:14:50,15.08845262,0.0001414,53.2169,75.3213,94.7374,265.3779,0.00010245,1.343e-05,0.0,0 STARLINK-5294,1 54159U 22141C   24064.34363893  .00001343  00000-0  10245-3 0  9995,2 54159  53.2169  75.3213 0001414  94.7374 265.3779 15.08845262 74705,6917.864,95.437,540.707,538.751,0.0
54159.0,STARLINK-5294,PAYLOAD,2024-03-05 08:05:38,15.08834758,0.0001581,53.2177,70.8619,88.8483,271.269,-1.5845e-05,-5.4e-06,0.0,0 STARLINK-5294,1 54159U 22141C   24065.33725314 -.00000540  00000-0 -15845-4 0  9997,2 54159  53.2177  70.8619 0001581  88.8483 271.2690 15.08834758 74856,6917.896,95.438,540.855,538.668,0.0
54159.0,STARLINK-5294,PAYLOAD,2024-03-05 17:37:57,15.08838347,0.0001538,53.2175,69.0742,89.1321,270.9847,4.2772e-06,-2.2e-06,0.0,0 STARLINK-5294,1 54159U 22141C   24065.73469083 -.00000220  00000-0  42772-5 0  9993,2 54159  53.2175  69.0742 0001538  89.1321 270.9847 15.08838347 74913,6917.885,95.438,540.814,538.686,0.0
54159.0,STARLINK-5294,PAYLOAD,2024-03-06 09:31:47,15.08851766,0.0001501,53.2166,66.1004,110.4128,249.7025,0.00010458,1.377e-05,0.0,0 STARLINK-5294,1 54159U 22141C   24066.39707925  .00001377  00000-0  10458-3 0  9993,2 54159  53.2166  66.1004 0001501 110.4128 249.7025 15.08851766 75019,6917.844,95.437,540.748,538.671,0.0
54159.0,STARLINK-5294,PAYLOAD,2024-03-07 03:01:02,15.08838602,0.0001635,53.2166,62.8278,107.4989,252.6182,0.00014995,2.099e-05,0.0,0 STARLINK-5294,1 54159U 22141C   24067.12572666  .00002099  00000-0  14995-3 0  9999,2 54159  53.2166  62.8278 0001635 107.4989 252.6182 15.08838602 75127,6917.885,95.438,540.881,538.619,0.0
54159.0,STARLINK-5294,PAYLOAD,2024-03-07 09:22:35,15.08838217,0.0001368,53.2164,61.641,96.2733,263.8415,8.5737e-05,1.077e-05,0.0,0 STARLINK-5294,1 54159U 22141C   24067.39068999  .00001077  00000-0  85737-4 0  9995,2 54159  53.2164  61.6410 0001368  96.2733 263.8415 15.08838217 75164,6917.886,95.438,540.697,538.804,0.0
54159.0,STARLINK-5294,PAYLOAD,2024-03-08 02:51:48,15.08909003,0.0001743,53.2173,58.3678,87.4842,272.635,-0.00097388,-0.00015783,0.0,0 STARLINK-5294,1 54159U 22141C   24068.11930650 -.00015783  00000-0 -97388-3 0  9993,2 54159  53.2173  58.3678 0001743  87.4842 272.6350 15.08909003 75273,6917.669,95.433,540.74,538.329,0.0
54159.0,STARLINK-5294,PAYLOAD,2024-03-08 04:27:13,15.08841502,0.0001549,53.2174,58.0706,104.7584,255.358,2.8838e-05,1.71e-06,0.0,0 STARLINK-5294,1 54159U 22141C   24068.18556946  .00000171  00000-0  28838-4 0  9990,2 54159  53.2174  58.0706 0001549 104.7584 255.3580 15.08841502 75286,6917.876,95.437,540.812,538.669,0.0
54159.0,STARLINK-5294,PAYLOAD,2024-03-08 06:02:36,15.08826529,0.0001368,53.2171,57.7737,103.1317,256.9828,0.00025991,3.849e-05,0.0,0 STARLINK-5294,1 54159U 22141C   24068.25181480  .00003849  00000-0  25991-3 0  9996,2 54159  53.2171  57.7737 0001368 103.1317 256.9828 15.08826529 75294,6917.922,95.438,540.733,538.84,0.0
54159.0,STARLINK-5294,PAYLOAD,2024-03-09 09:04:09,15.088358,0.0001317,53.2169,52.7193,96.8615,263.2527,5.1951e-05,5.39e-06,0.0,0 STARLINK-5294,1 54159U 22141C   24069.37789270  .00000539  00000-0  51951-4 0  9990,2 54159  53.2169  52.7193 0001317  96.8615 263.2527 15.08835800 75463,6917.893,95.438,540.669,538.847,0.0
54159.0,STARLINK-5294,PAYLOAD,2024-03-10 05:44:10,15.08836504,0.0001276,53.2168,48.8539,97.2413,262.8724,3.0215e-05,1.93e-06,0.0,0 STARLINK-5294,1 54159U 22141C   24070.23901533  .00000193  00000-0  30215-4 0  9991,2 54159  53.2168  48.8539 0001276  97.2413 262.8724 15.08836504 75597,6917.891,95.438,540.639,538.873,0.0
54159.0,STARLINK-5294,PAYLOAD,2024-03-10 15:16:29,15.08844262,0.0001261,53.2175,47.0685,86.4855,273.6281,9.959e-05,1.298e-05,0.0,0 STARLINK-5294,1 54159U 22141C   24070.63644852  .00001298  00000-0  99590-4 0  9991,2 54159  53.2175  47.0685 0001261  86.4855 273.6281 15.08844262 75657,6917.867,95.437,540.605,538.86,0.0
54159.0,STARLINK-5294,PAYLOAD,2024-03-11 03:59:35,15.08831662,0.000125,53.217,44.6895,83.3299,276.7835,3.83e-05,3.22e-06,0.0,0 STARLINK-5294,1 54159U 22141C   24071.16637979  .00000322  00000-0  38300-4 0  9991,2 54159  53.2170  44.6895 0001250  83.3299 276.7835 15.08831662 75732,6917.906,95.438,540.636,538.906,0.0
54159.0,STARLINK-5294,PAYLOAD,2024-03-11 07:10:21,15.08837984,0.000131,53.2173,44.0949,85.2229,274.8912,9.0668e-05,1.155e-05,0.0,0 STARLINK-5294,1 54159U 22141C   24071.29885492  .00001155  00000-0  90668-4 0  9990,2 54159  53.2173  44.0949 0001310  85.2229 274.8912 15.08837984 75750,6917.887,95.438,540.658,538.845,0.0
54159.0,STARLINK-5294,PAYLOAD,2024-03-12 03:50:22,15.0883144,0.0001283,53.218,40.2282,82.2521,277.8616,-6.3314e-08,-2.89e-06,0.0,0 STARLINK-5294,1 54159U 22141C   24072.15998381 -.00000289  00000-0 -63314-7 0  9998,2 54159  53.2180  40.2282 0001283  82.2521 277.8616 15.08831440 75886,6917.907,95.438,540.659,538.884,0.0
54159.0,STARLINK-5294,PAYLOAD,2024-03-12 14:58:03,15.08849639,0.0001308,53.2189,38.1465,84.2784,275.8357,5.8176e-05,6.38e-06,0.0,0 STARLINK-5294,1 54159U 22141C   24072.62364987  .00000638  00000-0  58176-4 0  9992,2 54159  53.2189  38.1465 0001308  84.2784 275.8357 15.08849639 75952,6917.851,95.437,540.621,538.811,0.0
54159.0,STARLINK-5294,PAYLOAD,2024-03-13 03:41:08,15.08839351,0.000123,53.2186,35.7693,91.1674,268.9459,0.00011615,1.561e-05,0.0,0 STARLINK-5294,1 54159U 22141C   24073.15357557  .00001561  00000-0  11615-3 0  9998,2 54159  53.2186  35.7693 0001230  91.1674 268.9459 15.08839351 76030,6917.882,95.438,540.598,538.896,0.0
54159.0,STARLINK-5294,PAYLOAD,2024-03-13 21:10:23,15.08840695,0.0001526,53.2194,32.4955,105.6837,254.4324,0.00011958,1.616e-05,0.0,0 STARLINK-5294,1 54159U 22141C   24073.88221262  .00001616  00000-0  11958-3 0  9992,2 54159  53.2194  32.4955 0001526 105.6837 254.4324 15.08840695 76140,6917.878,95.438,540.799,538.688,0.0
54159.0,STARLINK-5294,PAYLOAD,2024-03-14 03:31:55,15.08846028,0.0001526,53.2196,31.3072,104.2401,255.876,7.5649e-05,9.16e-06,0.0,0 STARLINK-5294,1 54159U 22141C   24074.14717116  .00000916  00000-0  75649-4 0  9990,2 54159  53.2196  31.3072 0001526 104.2401 255.8760 15.08846028 76181,6917.862,95.437,540.783,538.671,0.0
54159.0,STARLINK-5294,PAYLOAD,2024-03-15 03:22:43,15.088367,0.000123,53.2179,26.8494,92.1887,267.9246,-6.4773e-06,-3.91e-06,0.0,0 STARLINK-5294,1 54159U 22141C   24075.14077833 -.00000391  00000-0 -64773-5 0  9992,2 54159  53.2179  26.8494 0001230  92.1887 267.9246 15.08836700 76330,6917.89,95.438,540.606,538.905,0.0
54159.0,STARLINK-5294,PAYLOAD,2024-03-15 20:51:57,15.08828389,0.000117,53.2179,23.5784,91.5498,268.5628,0.00013493,1.86e-05,0.0,0 STARLINK-5294,1 54159U 22141C   24075.86941963  .00001860  00000-0  13493-3 0  9996,2 54159  53.2179  23.5784 0001170  91.5498 268.5628 15.08828389 76447,6917.916,95.438,540.59,538.971,0.0
54159.0,STARLINK-5294,PAYLOAD,2024-03-16 06:24:16,15.08840922,0.0001249,53.218,21.7925,102.0422,258.071,2.1996e-05,6.2e-07,0.0,0 STARLINK-5294,1 54159U 22141C   24076.26685482  .00000062  00000-0  21996-4 0  9993,2 54159  53.2180  21.7925 0001249 102.0422 258.0710 15.08840922 76508,6917.878,95.437,540.607,538.879,0.0
54159.0,STARLINK-5294,PAYLOAD,2024-03-17 01:28:54,15.08835029,0.0001271,53.2185,18.2228,100.7494,259.3642,7.718e-05,9.41e-06,0.0,0 STARLINK-5294,1 54159U 22141C   24077.06173846  .00000941  00000-0  77180-4 0  9990,2 54159  53.2185  18.2228 0001271 100.7494 259.3642 15.08835029 76622,6917.896,95.438,540.64,538.881,0.0
54159.0,STARLINK-5294,PAYLOAD,2024-03-17 18:58:08,15.08837082,0.0001307,53.2188,14.9519,102.634,257.4798,3.6826e-05,2.98e-06,0.0,0 STARLINK-5294,1 54159U 22141C   24077.79038023  .00000298  00000-0  36826-4 0  9994,2 54159  53.2188  14.9519 0001307 102.6340 257.4798 15.08837082 76736,6917.889,95.438,540.658,538.85,0.0
54159.0,STARLINK-5294,PAYLOAD,2024-03-18 01:19:41,15.08838582,0.0001296,53.2187,13.7629,99.93,260.1838,4.737e-05,4.66e-06,0.0,0 STARLINK-5294,1 54159U 22141C   24078.05533944  .00000466  00000-0  47370-4 0  9999,2 54159  53.2187  13.7629 0001296  99.9300 260.1838 15.08838582 76771,6917.885,95.438,540.646,538.853,0.0
